{
  "links": {
    "next": "http://www.neowsapp.com/rest/v1/neo/browse?page=2&size=20&api_key=DEMO_KEY",
    "prev": "http://www.neowsapp.com/rest/v1/neo/browse?page=0&size=20&api_key=DEMO_KEY",
    "self": "http://www.neowsapp.com/rest/v1/neo/browse?page=1&size=20&api_key=DEMO_KEY"
  },
  "near_earth_objects": [
    {
      "absolute_magnitude_h": 21.4,
      "close_approach_data": [],
      "designation": "1995 UC2",
      "estimated_diameter": {
        "feet": {
          "estimated_diameter_max": 1023.3519701574,
          "estimated_diameter_min": 457.6569140361
        },
        "kilometers": {
          "estimated_diameter_max": 0.3119176705,
          "estimated_diameter_min": 0.1394938229
        },
        "meters": {
          "estimated_diameter_max": 311.9176705226,
          "estimated_diameter_min": 139.4938229344
        },
        "miles": {
          "estimated_diameter_max": 0.1938165949,
          "estimated_diameter_min": 0.0866774163
        }
      },
      "id": "3092142",
      "is_potentially_hazardous_asteroid": false,
      "is_sentry_object": false,
      "links": {
        "self": "http://www.neowsapp.com/rest/v1/neo/3092142?api_key=DEMO_KEY"
      },
      "name": "(1995 UC2)",
      "nasa_jpl_url": "http://ssd.jpl.nasa.gov/sbdb.cgi?sstr=3092142",
      "neo_reference_id": "3092142",
      "orbital_data": {
        "aphelion_distance": "2.28090139509396",
        "ascending_node_longitude": "33.24839113556171",
        "data_arc_in_days": 6,
        "eccentricity": ".3260279339378647",
        "epoch_osculation": "2450014.5",
        "equinox": "J2000",
        "first_observation_date": "1995-10-21",
        "inclination": "27.648437091567",
        "jupiter_tisserand_invariant": "3.988",
        "last_observation_date": "1995-10-27",
        "mean_anomaly": "48.81056941678496",
        "mean_motion": ".436891220093867",
        "minimum_orbit_intersection": ".404397",
        "observations_used": 11,
        "orbit_class": {
          "orbit_class_description": "Near-Earth asteroid orbits similar to that of 1221 Amor",
          "orbit_class_range": "1.017 AU < q (perihelion) < 1.3 AU",
          "orbit_class_type": "AMO"
        },
        "orbit_determination_date": "2017-04-06 09:18:07",
        "orbit_id": "12",
        "orbit_uncertainty": "9",
        "orbital_period": "824.0037415323961",
        "perihelion_argument": "272.677945470292",
        "perihelion_distance": "1.159299729961433",
        "perihelion_time": "2449902.777522706229",
        "semi_major_axis": "1.720100562527697"
      }
    },
    {
      "absolute_magnitude_h": 24.7,
      "close_approach_data": [
        {
          "close_approach_date": "1996-01-06",
          "close_approach_date_full": "1996-Jan-06 22:11",
          "epoch_date_close_approach": 820966260000,
          "miss_distance": {
            "astronomical": "0.0231743444",
            "kilometers": "3466832.560886428",
            "lunar": "9.0148199716",
            "miles": "2154189.8622235864"
          },
          "orbiting_body": "Earth",
          "relative_velocity": {
            "kilometers_per_hour": "29388.3752977862",
            "kilometers_per_second": "8.1634375827",
            "miles_per_hour": "18260.7935287828"
          }
        }
      ],
      "designation": "1996 AP1",
      "estimated_diameter": {
        "feet": {
          "estimated_diameter_max": 223.8850168104,
          "estimated_diameter_min": 100.1244233463
        },
        "kilometers": {
          "estimated_diameter_max": 0.0682401509,
          "estimated_diameter_min": 0.0305179233
        },
        "meters": {
          "estimated_diameter_max": 68.2401509401,
          "estimated_diameter_min": 30.5179232594
        },
        "miles": {
          "estimated_diameter_max": 0.0424024508,
          "estimated_diameter_min": 0.0189629525
        }
      },
      "id": "3092143",
      "is_potentially_hazardous_asteroid": false,
      "is_sentry_object": false,
      "links": {
        "self": "http://www.neowsapp.com/rest/v1/neo/3092143?api_key=DEMO_KEY"
      },
      "name": "(1996 AP1)",
      "nasa_jpl_url": "http://ssd.jpl.nasa.gov/sbdb.cgi?sstr=3092143",
      "neo_reference_id": "3092143",
      "orbital_data": {
        "aphelion_distance": "2.865815068770662",
        "ascending_node_longitude": "118.0231302904036",
        "data_arc_in_days": 10,
        "eccentricity": ".4955199164428823",
        "epoch_osculation": "2450099.5",
        "equinox": "J2000",
        "first_observation_date": "1996-01-14",
        "inclination": "5.462479052438222",
        "jupiter_tisserand_invariant": "3.765",
        "last_observation_date": "1996-01-24",
        "mean_anomaly": "10.9361433458784",
        "mean_motion": ".3715524528038897",
        "minimum_orbit_intersection": ".0231667",
        "observations_used": 13,
        "orbit_class": {
          "orbit_class_description": "Near-Earth asteroid orbits which cross the Earth’s orbit similar to that of 1862 Apollo",
          "orbit_class_range": "a (semi-major axis) > 1.0 AU; q (perihelion) < 1.017 AU",
          "orbit_class_type": "APO"
        },
        "orbit_determination_date": "2017-04-06 09:18:06",
        "orbit_id": "12",
        "orbit_uncertainty": "8",
        "orbital_period": "968.9076125949106",
        "perihelion_argument": "323.8357620427234",
        "perihelion_distance": ".9667184030496911",
        "perihelion_time": "2450070.066354054859",
        "semi_major_axis": "1.916266735910177"
      }
    },
    {
      "absolute_magnitude_h": 23.0,
      "close_approach_data": [
        {
          "close_approach_date": "1996-01-29",
          "close_approach_date_full": "1996-Jan-29 12:56",
          "epoch_date_close_approach": 822920160000,
          "miss_distance": {
            "astronomical": "0.0913113753",
            "kilometers": "13659987.251650611",
            "lunar": "35.5201249917",
            "miles": "8487922.4879799918"
          },
          "orbiting_body": "Earth",
          "relative_velocity": {
            "kilometers_per_hour": "98860.8779642102",
            "kilometers_per_second": "27.4613549901",
            "miles_per_hour": "61428.3049772616"
          }
        }
      ],
      "designation": "1996 BT",
      "estimated_diameter": {
        "feet": {
          "estimated_diameter_max": 489.807047955,
          "estimated_diameter_min": 219.0483710172
        },
        "kilometers": {
          "estimated_diameter_max": 0.1492931834,
          "estimated_diameter_min": 0.0667659413
        },
        "meters": {
          "estimated_diameter_max": 149.2931834393,
          "estimated_diameter_min": 66.7659413495
        },
        "miles": {
          "estimated_diameter_max": 0.0927664547,
          "estimated_diameter_min": 0.0414864197
        }
      },
      "id": "3008375",
      "is_potentially_hazardous_asteroid": false,
      "is_sentry_object": false,
      "links": {
        "self": "http://www.neowsapp.com/rest/v1/neo/3008375?api_key=DEMO_KEY"
      },
      "name": "(1996 BT)",
      "nasa_jpl_url": "http://ssd.jpl.nasa.gov/sbdb.cgi?sstr=3008375",
      "neo_reference_id": "3008375",
      "orbital_data": {
        "aphelion_distance": "2.203117080343397",
        "ascending_node_longitude": "297.1072938512531",
        "data_arc_in_days": 10,
        "eccentricity": ".8322147274751157",
        "epoch_osculation": "2450105.5",
        "equinox": "J2000",
        "first_observation_date": "1996-01-19",
        "inclination": "11.99181147834666",
        "jupiter_tisserand_invariant": "4.849",
        "last_observation_date": "1996-01-29",
        "mean_anomaly": "322.2008607009153",
        "mean_motion": ".7475018334487996",
        "minimum_orbit_intersection": ".0326632",
        "observations_used": 21,
        "orbit_class": {
          "orbit_class_description": "Near-Earth asteroid orbits which cross the Earth’s orbit similar to that of 1862 Apollo",
          "orbit_class_range": "a (semi-major axis) > 1.0 AU; q (perihelion) < 1.017 AU",
          "orbit_class_type": "APO"
        },
        "orbit_determination_date": "2017-04-06 09:18:06",
        "orbit_id": "12",
        "orbit_uncertainty": "9",
        "orbital_period": "481.6041699042312",
        "perihelion_argument": "327.8866413021353",
        "perihelion_distance": ".2017506977684005",
        "perihelion_time": "2450156.067286403417",
        "semi_major_axis": "1.202433889055899"
      }
    }
  ],
  "page": {
    "number": 1,
    "size": 20,
    "total_elements": 22220,
    "total_pages": 1111
  }
}
